{"type": "FeatureCollection", "features": [ {"type": "Feature", "properties": {"norad_id": 66727, "name": "FLOCK 4H-24", "group": "last-30-days", "lat": 35.73446018242218, "lon": -106.21454320557783, "alt_km": 516.9916679344451, "timestamp": "2025-12-22T18:58:52.138341+00:00", "meta": {"OBJECT_NAME": "FLOCK 4H-24", "OBJECT_ID": "2025-276BP", "EPOCH": "2025-12-21T18:35:35.317248", "MEAN_MOTION": 15.16663463, "ECCENTRICITY": 0.0003584, "INCLINATION": 97.4444, "RA_OF_ASC_NODE": 67.3902, "ARG_OF_PERICENTER": 12.0689, "MEAN_ANOMALY": 348.063, "EPHEMERIS_TYPE": 0, "CLASSIFICATION_TYPE": "U", "NORAD_CAT_ID": 66727, "ELEMENT_SET_NO": 999, "REV_AT_EPOCH": 349, "BSTAR": -0.014797, "MEAN_MOTION_DOT": -0.00278725, "MEAN_MOTION_DDOT": 0}, "tle": {"line1": "1 66727U 25276BP  25355.77471432 -.00278725  00000+0 -14797-1 0  9996", "line2": "2 66727  97.4444  67.3902 0003584  12.0689 348.0630 15.16663463  3496"}}, "geometry": {"type": "Point", "coordinates": [-106.21454320557783, 35.73446018242218]}}, {"type": "Feature", "properties": {"norad_id": 66728, "name": "FLOCK 4H-25", "group": "last-30-days", "lat": -44.51910497567261, "lon": -118.97846649127557, "alt_km": 518.3999814574036, "timestamp": "2025-12-22T18:58:52.138353+00:00", "meta": {"OBJECT_NAME": "FLOCK 4H-25", "OBJECT_ID": "2025-276BQ", "EPOCH": "2025-12-22T02:10:31.389312", "MEAN_MOTION": 15.18200313, "ECCENTRICITY": 0.00015993, "INCLINATION": 97.4402, "RA_OF_ASC_NODE": 67.7162, "ARG_OF_PERICENTER": 117.0571, "MEAN_ANOMALY": 243.0827, "EPHEMERIS_TYPE": 0, "CLASSIFICATION_TYPE": "U", "NORAD_CAT_ID": 66728, "ELEMENT_SET_NO": 999, "REV_AT_EPOCH": 282, "BSTAR": 0.00031301624, "MEAN_MOTION_DOT": 6.335e-05, "MEAN_MOTION_DDOT": 0}, "tle": {"line1": "1 66728U 25276BQ  25356.09064108  .00006335  00000+0  31302-3 0  9998", "line2": "2 66728  97.4402  67.7162 0001599 117.0571 243.0827 15.18200313  2824"}}, "geometry": {"type": "Point", "coordinates": [-118.97846649127557, -44.51910497567261]}}, {"type": "Feature", "properties": {"norad_id": 66729, "name": "FLOCK 4H-26", "group": "last-30-days", "lat": 48.45711488792391, "lon": -103.15398551821316, "alt_km": 511.87664533691986, "timestamp": "2025-12-22T18:58:52.138363+00:00", "meta": {"OBJECT_NAME": "FLOCK 4H-26", "OBJECT_ID": "2025-276BR", "EPOCH": "2025-12-22T05:44:32.474400", "MEAN_MOTION": 15.17143911, "ECCENTRICITY": 0.00037187, "INCLINATION": 97.44, "RA_OF_ASC_NODE": 67.8234, "ARG_OF_PERICENTER": 265.3627, "MEAN_ANOMALY": 94.7182, "EPHEMERIS_TYPE": 0, "CLASSIFICATION_TYPE": "U", "NORAD_CAT_ID": 66729, "ELEMENT_SET_NO": 999, "REV_AT_EPOCH": 356, "BSTAR": 0.00050638441, "MEAN_MOTION_DOT": 9.988e-05, "MEAN_MOTION_DDOT": 0}, "tle": {"line1": "1 66729U 25276BR  25356.23926475  .00009988  00000+0  50638-3 0  9999", "line2": "2 66729  97.4400  67.8234 0003718 265.3627  94.7182 15.17143911  3564"}}, "geometry": {"type": "Point", "coordinates": [-103.15398551821316, 48.45711488792391]}}, {"type": "Feature", "properties": {"norad_id": 66730, "name": "FLOCK 4H-27", "group": "last-30-days", "lat": -33.10127077152153, "lon": -116.49346878723131, "alt_km": 517.7876344764754, "timestamp": "2025-12-22T18:58:52.138374+00:00", "meta": {"OBJECT_NAME": "FLOCK 4H-27", "OBJECT_ID": "2025-276BS", "EPOCH": "2025-12-22T05:23:19.896576", "MEAN_MOTION": 15.18077157, "ECCENTRICITY": 0.00011797, "INCLINATION": 97.4375, "RA_OF_ASC_NODE": 67.8353, "ARG_OF_PERICENTER": 128.4458, "MEAN_ANOMALY": 231.6882, "EPHEMERIS_TYPE": 0, "CLASSIFICATION_TYPE": "U", "NORAD_CAT_ID": 66730, "ELEMENT_SET_NO": 999, "REV_AT_EPOCH": 356, "BSTAR": 0.00058305441, "MEAN_MOTION_DOT": 0.00011824, "MEAN_MOTION_DDOT": 0}, "tle": {"line1": "1 66730U 25276BS  25356.22453584  .00011824  00000+0  58305-3 0  9997", "line2": "2 66730  97.4375  67.8353 0001179 128.4458 231.6882 15.18077157  3567"}}, "geometry": {"type": "Point", "coordinates": [-116.49346878723131, -33.10127077152153]}}, {"type": "Feature", "properties": {"norad_id": 66731, "name": "FLOCK 4H-28", "group": "last-30-days", "lat": 46.76074373517199, "lon": -103.65112325084462, "alt_km": 511.91235966535805, "timestamp": "2025-12-22T18:58:52.138386+00:00", "meta": {"OBJECT_NAME": "FLOCK 4H-28", "OBJECT_ID": "2025-276BT", "EPOCH": "2025-12-22T05:44:04.924896", "MEAN_MOTION": 15.17132264, "ECCENTRICITY": 0.00032589, "INCLINATION": 97.4389, "RA_OF_ASC_NODE": 67.8202, "ARG_OF_PERICENTER": 266.1149, "MEAN_ANOMALY": 93.9712, "EPHEMERIS_TYPE": 0, "CLASSIFICATION_TYPE": "U", "NORAD_CAT_ID": 66731, "ELEMENT_SET_NO": 999, "REV_AT_EPOCH": 356, "BSTAR": 0.00051155037, "MEAN_MOTION_DOT": 0.00010087, "MEAN_MOTION_DDOT": 0}, "tle": {"line1": "1 66731U 25276BT  25356.23894589  .00010087  00000+0  51155-3 0  9999", "line2": "2 66731  97.4389  67.8202 0003258 266.1149  93.9712 15.17132264  3564"}}, "geometry": {"type": "Point", "coordinates": [-103.65112325084462, 46.76074373517199]}}, {"type": "Feature", "properties": {"norad_id": 66732, "name": "FLOCK 4H-29", "group": "last-30-days", "lat": 35.1400603244736, "lon": -106.35658159060493, "alt_km": 511.35510294166943, "timestamp": "2025-12-22T18:58:52.138397+00:00", "meta": {"OBJECT_NAME": "FLOCK 4H-29", "OBJECT_ID": "2025-276BU", "EPOCH": "2025-12-22T05:40:56.877888", "MEAN_MOTION": 15.17127649, "ECCENTRICITY": 0.00028206, "INCLINATION": 97.4409, "RA_OF_ASC_NODE": 67.8213, "ARG_OF_PERICENTER": 197.3348, "MEAN_ANOMALY": 162.779, "EPHEMERIS_TYPE": 0, "CLASSIFICATION_TYPE": "U", "NORAD_CAT_ID": 66732, "ELEMENT_SET_NO": 999, "REV_AT_EPOCH": 356, "BSTAR": -0.0050347953, "MEAN_MOTION_DOT": -0.00098508, "MEAN_MOTION_DDOT": 0}, "tle": {"line1": "1 66732U 25276BU  25356.23676942 -.00098508  00000+0 -50348-2 0  9999", "line2": "2 66732  97.4409  67.8213 0002820 197.3348 162.7790 15.17127649  3562"}}, "geometry": {"type": "Point", "coordinates": [-106.35658159060493, 35.1400603244736]}}, {"type": "Feature", "properties": {"norad_id": 66733, "name": "FLOCK 4H-30", "group": "last-30-days", "lat": 40.90171413428509, "lon": -105.11492053494405, "alt_km": 512.4190681866203, "timestamp": "2025-12-22T18:58:52.138407+00:00", "meta": {"OBJECT_NAME": "FLOCK 4H-30", "OBJECT_ID": "2025-276BV", "EPOCH": "2025-12-22T06:00:02.000160", "MEAN_MOTION": 15.1725001, "ECCENTRICITY": 0.00032887, "INCLINATION": 97.4433, "RA_OF_ASC_NODE": 67.8508, "ARG_OF_PERICENTER": 268.3903, "MEAN_ANOMALY": 157.9051, "EPHEMERIS_TYPE": 0, "CLASSIFICATION_TYPE": "U", "NORAD_CAT_ID": 66733, "ELEMENT_SET_NO": 999, "REV_AT_EPOCH": 299, "BSTAR": -0.00081213407, "MEAN_MOTION_DOT": -0.00016181, "MEAN_MOTION_DDOT": 0}, "tle": {"line1": "1 66733U 25276BV  25356.25002315 -.00016181  00000+0 -81213-3 0  9992", "line2": "2 66733  97.4433  67.8508 0003288 268.3903 157.9051 15.17250010  2993"}}, "geometry": {"type": "Point", "coordinates": [-105.11492053494405, 40.90171413428509]}}, {"type": "Feature", "properties": {"norad_id": 66734, "name": "FLOCK 4H-31", "group": "last-30-days", "lat": 38.628957746366744, "lon": -105.64562076586806, "alt_km": 508.66706290997445, "timestamp": "2025-12-22T18:58:52.138417+00:00", "meta": {"OBJECT_NAME": "FLOCK 4H-31", "OBJECT_ID": "2025-276BW", "EPOCH": "2025-12-22T05:42:14.133312", "MEAN_MOTION": 15.17606016, "ECCENTRICITY": 0.00039846, "INCLINATION": 97.4368, "RA_OF_ASC_NODE": 67.8194, "ARG_OF_PERICENTER": 219.9674, "MEAN_ANOMALY": 140.1267, "EPHEMERIS_TYPE": 0, "CLASSIFICATION_TYPE": "U", "NORAD_CAT_ID": 66734, "ELEMENT_SET_NO": 999, "REV_AT_EPOCH": 356, "BSTAR": 0.014847069, "MEAN_MOTION_DOT": 0.00311254, "MEAN_MOTION_DDOT": 0}, "tle": {"line1": "1 66734U 25276BW  25356.23766358  .00311254  00000+0  14847-1 0  9999", "line2": "2 66734  97.4368  67.8194 0003984 219.9674 140.1267 15.17606016  3560"}}, "geometry": {"type": "Point", "coordinates": [-105.64562076586806, 38.628957746366744]}}, {"type": "Feature", "properties": {"norad_id": 66735, "name": "FLOCK 4H-32", "group": "last-30-days", "lat": 42.48478119629435, "lon": -104.74499787120325, "alt_km": 512.2025343410878, "timestamp": "2025-12-22T18:58:52.138428+00:00", "meta": {"OBJECT_NAME": "FLOCK 4H-32", "OBJECT_ID": "2025-276BX", "EPOCH": "2025-12-22T05:42:58.701024", "MEAN_MOTION": 15.17215701, "ECCENTRICITY": 0.00035504, "INCLINATION": 97.4431, "RA_OF_ASC_NODE": 67.8355, "ARG_OF_PERICENTER": 263.7962, "MEAN_ANOMALY": 96.2867, "EPHEMERIS_TYPE": 0, "CLASSIFICATION_TYPE": "U", "NORAD_CAT_ID": 66735, "ELEMENT_SET_NO": 999, "REV_AT_EPOCH": 356, "BSTAR": 0.00053990561, "MEAN_MOTION_DOT": 0.00010676, "MEAN_MOTION_DDOT": 0}, "tle": {"line1": "1 66735U 25276BX  25356.23817941  .00010676  00000+0  53991-3 0  9994", "line2": "2 66735  97.4431  67.8355 0003550 263.7962  96.2867 15.17215701  3561"}}, "geometry": {"type": "Point", "coordinates": [-104.74499787120325, 42.48478119629435]}}, {"type": "Feature", "properties": {"norad_id": 66736, "name": "FLOCK 4H-33", "group": "last-30-days", "lat": -47.10617647849908, "lon": -119.67347784742778, "alt_km": 517.1709833016394, "timestamp": "2025-12-22T18:58:52.138438+00:00", "meta": {"OBJECT_NAME": "FLOCK 4H-33", "OBJECT_ID": "2025-276BY", "EPOCH": "2025-12-22T02:09:52.816032", "MEAN_MOTION": 15.18273812, "ECCENTRICITY": 0.00025733, "INCLINATION": 97.4427, "RA_OF_ASC_NODE": 67.726, "ARG_OF_PERICENTER": 162.7594, "MEAN_ANOMALY": 197.3728, "EPHEMERIS_TYPE": 0, "CLASSIFICATION_TYPE": "U", "NORAD_CAT_ID": 66736, "ELEMENT_SET_NO": 999, "REV_AT_EPOCH": 354, "BSTAR": 0.00062403808, "MEAN_MOTION_DOT": 0.00012734, "MEAN_MOTION_DDOT": 0}, "tle": {"line1": "1 66736U 25276BY  25356.09019463  .00012734  00000+0  62404-3 0  9998", "line2": "2 66736  97.4427  67.7260 0002573 162.7594 197.3728 15.18273812  3549"}}, "geometry": {"type": "Point", "coordinates": [-119.67347784742778, -47.10617647849908]}}]}